[
    {
        "Altitude(m)": 605470.7399791211,
        "Argument of Periapsis(deg)": 0.0,
        "Eccentricity": 0.0,
        "Inclination(deg)": 60.0,
        "Latitude(deg)": 27.988043738667134,
        "Longitude(deg)": -47.73709156071005,
        "Mean Anomaly(deg)": -212.7273,
        "RAAN(deg)": 250.00000000000003,
        "Satellite Name": "Test1 1109",
        "Satellite Number": 1109,
        "Semi-Major Axis(m)": 6980739.136638005,
        "Time(s)": 0
    },
    {
        "Altitude(m)": 605395.7786164939,
        "Argument of Periapsis(deg)": 0.00010418945913296404,
        "Eccentricity": 0.0,
        "Inclination(deg)": 60.0,
        "Latitude(deg)": 27.473734875755245,
        "Longitude(deg)": -47.38390346497165,
        "Mean Anomaly(deg)": -212.1071938545382,
        "RAAN(deg)": 249.99957995086027,
        "Satellite Name": "Test1 1109",
        "Satellite Number": 1109,
        "Semi-Major Axis(m)": 6980739.136638005,
        "Time(s)": 10
    }
]